{
  "type": "FeatureCollection",
  "features": [
    {
      "type": "Feature",
      "geometry": {
        "type": "Polygon",
        "coordinates": [[
          [-73.9897, 40.7614],
          [-73.9882, 40.7614],
          [-73.9882, 40.7600],
          [-73.9897, 40.7600],
          [-73.9897, 40.7614]
        ]]
      },
      "properties": {
        "name": "Central Park - South Section",
        "sitename": "Central Park - South Section",
        "type": "park",
        "sensitive": true,
        "jurisdiction": "NYC"
      }
    },
    {
      "type": "Feature",
      "geometry": {
        "type": "Polygon",
        "coordinates": [[
          [-73.9845, 40.7580],
          [-73.9835, 40.7580],
          [-73.9835, 40.7572],
          [-73.9845, 40.7572],
          [-73.9845, 40.7580]
        ]]
      },
      "properties": {
        "name": "Bryant Park",
        "sitename": "Bryant Park",
        "type": "park",
        "sensitive": true,
        "jurisdiction": "NYC"
      }
    },
    {
      "type": "Feature",
      "geometry": {
        "type": "Point",
        "coordinates": [-73.9860, 40.7595]
      },
      "properties": {
        "name": "Midtown Playground",
        "sitename": "Midtown Playground",
        "type": "playground",
        "sensitive": true,
        "jurisdiction": "NYC"
      }
    },
    {
      "type": "Feature",
      "geometry": {
        "type": "Polygon",
        "coordinates": [[
          [-73.9825, 40.7565],
          [-73.9815, 40.7565],
          [-73.9815, 40.7555],
          [-73.9825, 40.7555],
          [-73.9825, 40.7565]
        ]]
      },
      "properties": {
        "name": "Community Garden East",
        "sitename": "Community Garden East",
        "type": "community_garden",
        "sensitive": true,
        "jurisdiction": "NYC"
      }
    },
    {
      "type": "Feature",
      "geometry": {
        "type": "Point",
        "coordinates": [-73.9870, 40.7610]
      },
      "properties": {
        "name": "Public School 123 Yard",
        "sitename": "Public School 123 Yard",
        "type": "school_yard",
        "sensitive": true,
        "jurisdiction": "NYC"
      }
    },
    {
      "type": "Feature",
      "geometry": {
        "type": "Polygon",
        "coordinates": [[
          [-73.9910, 40.7585],
          [-73.9900, 40.7585],
          [-73.9900, 40.7575],
          [-73.9910, 40.7575],
          [-73.9910, 40.7585]
        ]]
      },
      "properties": {
        "name": "Riverside Plaza",
        "sitename": "Riverside Plaza",
        "type": "public_plaza",
        "sensitive": true,
        "jurisdiction": "NYC"
      }
    },
    {
      "type": "Feature",
      "geometry": {
        "type": "Point",
        "coordinates": [-73.9840, 40.7600]
      },
      "properties": {
        "name": "Senior Center Garden",
        "sitename": "Senior Center Garden",
        "type": "community_space",
        "sensitive": true,
        "jurisdiction": "NYC"
      }
    }
  ]
}
